STARLINK-35723          
1 66211U 25244F   25328.81557492  .00034671  00000+0  87218-3 0  9993
2 66211  53.1617   0.5310 0001739  84.7259 275.3944 15.39641761  5557
STARLINK-35710          
1 66212U 25244G   25329.00004630  .00108515  00000+0  26904-2 0  9990
2 66212  53.1600 359.6096 0002009  86.5648 242.3772 15.39551656  5480
STARLINK-34204          
1 66213U 25244H   25328.81524293  .00069328  00000+0  17244-2 0  9996
2 66213  53.1615   0.5299 0001501  90.8657 269.2520 15.39674942  5559
STARLINK-35714          
1 66214U 25244J   25329.00004630  .00112934  00000+0  27975-2 0  9991
2 66214  53.1593 359.5067 0001559  93.6106 286.8306 15.39556144  5356
STARLINK-35712          
1 66215U 25244K   25329.00004630  .00085451  00000+0  21273-2 0  9990
2 66215  53.1590 359.4548 0001552 106.4306 299.7902 15.39548851  5356
STARLINK-35709          
1 66216U 25244L   25329.00004630  .00108534  00000+0  26908-2 0  9999
2 66216  53.1599 359.6061 0001308  92.6544 238.1202 15.39552850  5351
STARLINK-35700          
1 66217U 25244M   25329.00004630  .00110433  00000+0  27369-2 0  9993
2 66217  53.1598 359.5586 0001875  92.5915 262.0986 15.39554285  5351
STARLINK-35722          
1 66218U 25244N   25329.00004630  .00111961  00000+0  27741-2 0  9995
2 66218  53.1597 359.5545 0001885  92.9094 263.6138 15.39553230  5354
STARLINK-35737          
1 66219U 25244P   25329.00004630  .00093712  00000+0  23292-2 0  9996
2 66219  53.1593 359.5032 0001322 100.5989 281.6837 15.39553338  5510
STARLINK-35677          
1 66220U 25244Q   25329.00004630  .00103145  00000+0  25598-2 0  9991
2 66220  53.1591 359.4522 0001691 101.9297 306.1175 15.39548741  5351
STARLINK-35704          
1 66221U 25244R   25329.00004630  .00102992  00000+0  25562-2 0  9992
2 66221  53.1591 359.4004 0001975  98.7979 334.9906 15.39547100  5351
STARLINK-35666          
1 66222U 25244S   25328.07412535 -.00622081  00000+0 -14350-1 0  9996
2 66222  53.1595   3.7216 0002992 143.4193 216.7019 15.44383738  5449
