CCSDS_OMM_VERS = 2.0
CREATION_DATE  = 
ORIGINATOR     = 

OBJECT_NAME    = STARLINK-35723
OBJECT_ID      = 2025-244F
CENTER_NAME    = EARTH
REF_FRAME      = TEME
TIME_SYSTEM    = UTC
MEAN_ELEMENT_THEORY = SGP/SGP4

EPOCH          = 2025-11-24T19:34:25.673088
MEAN_MOTION    = 15.39641761
ECCENTRICITY   = .00017393
INCLINATION    = 53.1617
RA_OF_ASC_NODE = 0.5310
ARG_OF_PERICENTER = 84.7259
MEAN_ANOMALY   = 275.3944

EPHEMERIS_TYPE = 0
CLASSIFICATION_TYPE = U
NORAD_CAT_ID   = 66211
ELEMENT_SET_NO = 999
REV_AT_EPOCH   = 555
BSTAR          = .87217704E-3
MEAN_MOTION_DOT = .34671E-3
MEAN_MOTION_DDOT = 0

CCSDS_OMM_VERS = 2.0
CREATION_DATE  = 
ORIGINATOR     = 

OBJECT_NAME    = STARLINK-35710
OBJECT_ID      = 2025-244G
CENTER_NAME    = EARTH
REF_FRAME      = TEME
TIME_SYSTEM    = UTC
MEAN_ELEMENT_THEORY = SGP/SGP4

EPOCH          = 2025-11-25T00:00:04.000320
MEAN_MOTION    = 15.39551656
ECCENTRICITY   = .00020098
INCLINATION    = 53.1600
RA_OF_ASC_NODE = 359.6096
ARG_OF_PERICENTER = 86.5648
MEAN_ANOMALY   = 242.3772

EPHEMERIS_TYPE = 0
CLASSIFICATION_TYPE = U
NORAD_CAT_ID   = 66212
ELEMENT_SET_NO = 999
REV_AT_EPOCH   = 548
BSTAR          = .26903998E-2
MEAN_MOTION_DOT = .108515E-2
MEAN_MOTION_DDOT = 0

CCSDS_OMM_VERS = 2.0
CREATION_DATE  = 
ORIGINATOR     = 

OBJECT_NAME    = STARLINK-34204
OBJECT_ID      = 2025-244H
CENTER_NAME    = EARTH
REF_FRAME      = TEME
TIME_SYSTEM    = UTC
MEAN_ELEMENT_THEORY = SGP/SGP4

EPOCH          = 2025-11-24T19:33:56.989152
MEAN_MOTION    = 15.39674942
ECCENTRICITY   = .00015011
INCLINATION    = 53.1615
RA_OF_ASC_NODE = 0.5299
ARG_OF_PERICENTER = 90.8657
MEAN_ANOMALY   = 269.2520

EPHEMERIS_TYPE = 0
CLASSIFICATION_TYPE = U
NORAD_CAT_ID   = 66213
ELEMENT_SET_NO = 999
REV_AT_EPOCH   = 555
BSTAR          = .17243524E-2
MEAN_MOTION_DOT = .69328E-3
MEAN_MOTION_DDOT = 0

CCSDS_OMM_VERS = 2.0
CREATION_DATE  = 
ORIGINATOR     = 

OBJECT_NAME    = STARLINK-35714
OBJECT_ID      = 2025-244J
CENTER_NAME    = EARTH
REF_FRAME      = TEME
TIME_SYSTEM    = UTC
MEAN_ELEMENT_THEORY = SGP/SGP4

EPOCH          = 2025-11-25T00:00:04.000320
MEAN_MOTION    = 15.39556144
ECCENTRICITY   = .00015598
INCLINATION    = 53.1593
RA_OF_ASC_NODE = 359.5067
ARG_OF_PERICENTER = 93.6106
MEAN_ANOMALY   = 286.8306

EPHEMERIS_TYPE = 0
CLASSIFICATION_TYPE = U
NORAD_CAT_ID   = 66214
ELEMENT_SET_NO = 999
REV_AT_EPOCH   = 535
BSTAR          = .27975372E-2
MEAN_MOTION_DOT = .112934E-2
MEAN_MOTION_DDOT = 0

CCSDS_OMM_VERS = 2.0
CREATION_DATE  = 
ORIGINATOR     = 

OBJECT_NAME    = STARLINK-35712
OBJECT_ID      = 2025-244K
CENTER_NAME    = EARTH
REF_FRAME      = TEME
TIME_SYSTEM    = UTC
MEAN_ELEMENT_THEORY = SGP/SGP4

EPOCH          = 2025-11-25T00:00:04.000320
MEAN_MOTION    = 15.39548851
ECCENTRICITY   = .0001552
INCLINATION    = 53.1590
RA_OF_ASC_NODE = 359.4548
ARG_OF_PERICENTER = 106.4306
MEAN_ANOMALY   = 299.7902

EPHEMERIS_TYPE = 0
CLASSIFICATION_TYPE = U
NORAD_CAT_ID   = 66215
ELEMENT_SET_NO = 999
REV_AT_EPOCH   = 535
BSTAR          = .21273266E-2
MEAN_MOTION_DOT = .85451E-3
MEAN_MOTION_DDOT = 0

CCSDS_OMM_VERS = 2.0
CREATION_DATE  = 
ORIGINATOR     = 

OBJECT_NAME    = STARLINK-35709
OBJECT_ID      = 2025-244L
CENTER_NAME    = EARTH
REF_FRAME      = TEME
TIME_SYSTEM    = UTC
MEAN_ELEMENT_THEORY = SGP/SGP4

EPOCH          = 2025-11-25T00:00:04.000320
MEAN_MOTION    = 15.39552850
ECCENTRICITY   = .00013084
INCLINATION    = 53.1599
RA_OF_ASC_NODE = 359.6061
ARG_OF_PERICENTER = 92.6544
MEAN_ANOMALY   = 238.1202

EPHEMERIS_TYPE = 0
CLASSIFICATION_TYPE = U
NORAD_CAT_ID   = 66216
ELEMENT_SET_NO = 999
REV_AT_EPOCH   = 535
BSTAR          = .26908045E-2
MEAN_MOTION_DOT = .108534E-2
MEAN_MOTION_DDOT = 0

CCSDS_OMM_VERS = 2.0
CREATION_DATE  = 
ORIGINATOR     = 

OBJECT_NAME    = STARLINK-35700
OBJECT_ID      = 2025-244M
CENTER_NAME    = EARTH
REF_FRAME      = TEME
TIME_SYSTEM    = UTC
MEAN_ELEMENT_THEORY = SGP/SGP4

EPOCH          = 2025-11-25T00:00:04.000320
MEAN_MOTION    = 15.39554285
ECCENTRICITY   = .00018758
INCLINATION    = 53.1598
RA_OF_ASC_NODE = 359.5586
ARG_OF_PERICENTER = 92.5915
MEAN_ANOMALY   = 262.0986

EPHEMERIS_TYPE = 0
CLASSIFICATION_TYPE = U
NORAD_CAT_ID   = 66217
ELEMENT_SET_NO = 999
REV_AT_EPOCH   = 535
BSTAR          = .2736854E-2
MEAN_MOTION_DOT = .110433E-2
MEAN_MOTION_DDOT = 0

CCSDS_OMM_VERS = 2.0
CREATION_DATE  = 
ORIGINATOR     = 

OBJECT_NAME    = STARLINK-35722
OBJECT_ID      = 2025-244N
CENTER_NAME    = EARTH
REF_FRAME      = TEME
TIME_SYSTEM    = UTC
MEAN_ELEMENT_THEORY = SGP/SGP4

EPOCH          = 2025-11-25T00:00:04.000320
MEAN_MOTION    = 15.39553230
ECCENTRICITY   = .00018857
INCLINATION    = 53.1597
RA_OF_ASC_NODE = 359.5545
ARG_OF_PERICENTER = 92.9094
MEAN_ANOMALY   = 263.6138

EPHEMERIS_TYPE = 0
CLASSIFICATION_TYPE = U
NORAD_CAT_ID   = 66218
ELEMENT_SET_NO = 999
REV_AT_EPOCH   = 535
BSTAR          = .27741252E-2
MEAN_MOTION_DOT = .111961E-2
MEAN_MOTION_DDOT = 0

CCSDS_OMM_VERS = 2.0
CREATION_DATE  = 
ORIGINATOR     = 

OBJECT_NAME    = STARLINK-35737
OBJECT_ID      = 2025-244P
CENTER_NAME    = EARTH
REF_FRAME      = TEME
TIME_SYSTEM    = UTC
MEAN_ELEMENT_THEORY = SGP/SGP4

EPOCH          = 2025-11-25T00:00:04.000320
MEAN_MOTION    = 15.39553338
ECCENTRICITY   = .00013222
INCLINATION    = 53.1593
RA_OF_ASC_NODE = 359.5032
ARG_OF_PERICENTER = 100.5989
MEAN_ANOMALY   = 281.6837

EPHEMERIS_TYPE = 0
CLASSIFICATION_TYPE = U
NORAD_CAT_ID   = 66219
ELEMENT_SET_NO = 999
REV_AT_EPOCH   = 551
BSTAR          = .23291888E-2
MEAN_MOTION_DOT = .93712E-3
MEAN_MOTION_DDOT = 0

CCSDS_OMM_VERS = 2.0
CREATION_DATE  = 
ORIGINATOR     = 

OBJECT_NAME    = STARLINK-35677
OBJECT_ID      = 2025-244Q
CENTER_NAME    = EARTH
REF_FRAME      = TEME
TIME_SYSTEM    = UTC
MEAN_ELEMENT_THEORY = SGP/SGP4

EPOCH          = 2025-11-25T00:00:04.000320
MEAN_MOTION    = 15.39548741
ECCENTRICITY   = .00016913
INCLINATION    = 53.1591
RA_OF_ASC_NODE = 359.4522
ARG_OF_PERICENTER = 101.9297
MEAN_ANOMALY   = 306.1175

EPHEMERIS_TYPE = 0
CLASSIFICATION_TYPE = U
NORAD_CAT_ID   = 66220
ELEMENT_SET_NO = 999
REV_AT_EPOCH   = 535
BSTAR          = .25598208E-2
MEAN_MOTION_DOT = .103145E-2
MEAN_MOTION_DDOT = 0

CCSDS_OMM_VERS = 2.0
CREATION_DATE  = 
ORIGINATOR     = 

OBJECT_NAME    = STARLINK-35704
OBJECT_ID      = 2025-244R
CENTER_NAME    = EARTH
REF_FRAME      = TEME
TIME_SYSTEM    = UTC
MEAN_ELEMENT_THEORY = SGP/SGP4

EPOCH          = 2025-11-25T00:00:04.000320
MEAN_MOTION    = 15.39547100
ECCENTRICITY   = .00019755
INCLINATION    = 53.1591
RA_OF_ASC_NODE = 359.4004
ARG_OF_PERICENTER = 98.7979
MEAN_ANOMALY   = 334.9906

EPHEMERIS_TYPE = 0
CLASSIFICATION_TYPE = U
NORAD_CAT_ID   = 66221
ELEMENT_SET_NO = 999
REV_AT_EPOCH   = 535
BSTAR          = .25562161E-2
MEAN_MOTION_DOT = .102992E-2
MEAN_MOTION_DDOT = 0

CCSDS_OMM_VERS = 2.0
CREATION_DATE  = 
ORIGINATOR     = 

OBJECT_NAME    = STARLINK-35666
OBJECT_ID      = 2025-244S
CENTER_NAME    = EARTH
REF_FRAME      = TEME
TIME_SYSTEM    = UTC
MEAN_ELEMENT_THEORY = SGP/SGP4

EPOCH          = 2025-11-24T01:46:44.430240
MEAN_MOTION    = 15.44383738
ECCENTRICITY   = .00029927
INCLINATION    = 53.1595
RA_OF_ASC_NODE = 3.7216
ARG_OF_PERICENTER = 143.4193
MEAN_ANOMALY   = 216.7019

EPHEMERIS_TYPE = 0
CLASSIFICATION_TYPE = U
NORAD_CAT_ID   = 66222
ELEMENT_SET_NO = 999
REV_AT_EPOCH   = 544
BSTAR          = -.1434965E-1
MEAN_MOTION_DOT = -.622081E-2
MEAN_MOTION_DDOT = 0

